[{"OBJECT_ID":"2008-024A","OBJECT_NAME":"GALAXY 18","NORAD_CAT_ID":"32951","OBJECT_TYPE":"PAYLOAD","PERIOD":"1436.095","INCLINATION":"0.0085","APOGEE":"35799.195","PERIGEE":"35773.930","ECCENTRICITY":"0.0002996","MEAN_MOTION":"1.00271906","TLE_LINE1":"1 32951U 08024A   16238.41365881 -.00000001  00000-0  00000+0 0  9991","TLE_LINE2":"2 32951   0.0085 133.6454 0002996  24.6243 201.7375  1.00271906 30169","LAUNCH_DATE":"2008-05-21","LAUNCH_SITE":"SEA LAUNCH","OWNER":"UNITED STATES OF AMERICA","ORBIT_TYPE":"Geosynchronous","OPERATIONAL_STATUS":"Operational","satInfo":{"lng":-107.5534490759981,"lat":1.4734926963175288,"elevation":-7.135115151723964,"azimuth":62.55344907599806,"range":42463.60695941319,"height":35770.555015608756,"velocity":3.0754999025953214},"x":-341,"y":108,"dx":-9,"dy":29},{"OBJECT_ID":"2008-024B","OBJECT_NAME":"BLOCK DM-SL R/B","NORAD_CAT_ID":"32952","OBJECT_TYPE":"ROCKET BODY","PERIOD":"670.960","INCLINATION":"0.3659","APOGEE":"35582.766","PERIGEE":"2436.516","ECCENTRICITY":"0.6527994","MEAN_MOTION":"2.14617811","TLE_LINE1":"1 32952U 08024B   16239.28443237 -.00000249  00000-0  00000+0 0  9994","TLE_LINE2":"2 32952   0.3659 120.0969 6527994 221.2396   1.4804  2.14617811 64817","LAUNCH_DATE":"2008-05-21","LAUNCH_SITE":"SEA LAUNCH","OWNER":"SEA LAUNCH DEMO","ORBIT_TYPE":"Highly Elliptical Orbit","OPERATIONAL_STATUS":"N/A, derelict rocket body","satInfo":{"lng":61.290687094100754,"lat":-0.9199123561679116,"elevation":-11.438845253648894,"azimuth":253.7093129058992,"range":34813.775201154676,"height":27748.523141078367,"velocity":2.7676323586429072},"x":243,"y":-133,"dx":13,"dy":-24},{"OBJECT_ID":"2008-028A","OBJECT_NAME":"CHINASAT 9","NORAD_CAT_ID":"33051","OBJECT_TYPE":"PAYLOAD","PERIOD":"1436.128","INCLINATION":"0.0071","APOGEE":"35804.645","PERIGEE":"35769.774","ECCENTRICITY":"0.0004135","MEAN_MOTION":"1.00269598","TLE_LINE1":"1 33051U 08028A   16238.75257653 -.00000274 +00000-0 +00000-0 0  9994","TLE_LINE2":"2 33051 000.0071 174.1902 0004135 340.4490 182.9119 01.00269598030085","LAUNCH_DATE":"2008-06-09","LAUNCH_SITE":"Xichang Space Center, China","OWNER":"PEOPLES REPUBLIC OF CHINA","ORBIT_TYPE":"Geosynchronous","OPERATIONAL_STATUS":"Operational","satInfo":{"lng":58.08246794163452,"lat":-0.35353864785243194,"elevation":-8.917118445164515,"azimuth":256.91753205836545,"range":42689.370149105605,"height":35796.07433056182,"velocity":3.0739663887258177},"x":304,"y":-189,"dx":16,"dy":-26},{"OBJECT_ID":"2008-030A","OBJECT_NAME":"SKYNET 5C","NORAD_CAT_ID":"33055","OBJECT_TYPE":"PAYLOAD","PERIOD":"1436.098","INCLINATION":"0.0627","APOGEE":"35806.775","PERIGEE":"35766.499","ECCENTRICITY":"0.0004776","MEAN_MOTION":"1.00271641","TLE_LINE1":"1 33055U 08030A   16239.25577291 -.00000168  00000-0  00000+0 0  9991","TLE_LINE2":"2 33055   0.0627 359.9648 0004776 177.9123 231.2989  1.00271641 29985","LAUNCH_DATE":"2008-06-12","LAUNCH_SITE":"FRENCH GUIANA","OWNER":"UNITED KINGDOM","ORBIT_TYPE":"Geosynchronous","OPERATIONAL_STATUS":"Operational","satInfo":{"lng":-109.55681524608136,"lat":-0.07300345755500184,"elevation":-8.654708545625507,"azimuth":64.55681524608136,"range":42602.05709187167,"height":35738.85089889045,"velocity":3.0770019916749427},"x":-337,"y":120,"dx":-10,"dy":29},{"OBJECT_ID":"2008-030B","OBJECT_NAME":"TURKSAT 3A","NORAD_CAT_ID":"33056","OBJECT_TYPE":"PAYLOAD","PERIOD":"1436.101","INCLINATION":"0.0408","APOGEE":"35808.535","PERIGEE":"35764.827","ECCENTRICITY":"0.0005183","MEAN_MOTION":"1.00271485","TLE_LINE1":"1 33056U 08030B   16239.11659194  .00000118  00000-0  00000+0 0  9994","TLE_LINE2":"2 33056   0.0408 155.1937 0005183   7.1477 256.4039  1.00271485 30162","LAUNCH_DATE":"2008-06-12","LAUNCH_SITE":"FRENCH GUIANA","OWNER":"TURKEY","ORBIT_TYPE":"Geosynchronous","OPERATIONAL_STATUS":"Operational","satInfo":{"lng":99.70955640013585,"lat":-0.876311371346485,"elevation":-9.431109192826845,"azimuth":215.29044359986412,"range":42726.06350108215,"height":35775.337932552386,"velocity":3.0750356360144546},"x":353,"y":60,"dx":-5,"dy":-30},{"OBJECT_ID":"2008-034A","OBJECT_NAME":"INTELSAT 25(PROTOSTAR 1)","NORAD_CAT_ID":"33153","OBJECT_TYPE":"PAYLOAD","PERIOD":"1436.084","INCLINATION":"0.0551","APOGEE":"35797.709","PERIGEE":"35775.008","ECCENTRICITY":"0.0002692","MEAN_MOTION":"1.00272634","TLE_LINE1":"1 33153U 08034A   16238.16019353 -.00000250  00000-0  00000+0 0  9995","TLE_LINE2":"2 33153   0.0551 280.9420 0002692 232.7902 206.2761  1.00272634 29704","LAUNCH_DATE":"2008-07-07","LAUNCH_SITE":"FRENCH GUIANA","OWNER":"INTERNATIONAL TELECOMMUNICATIONS SATELLITE ORGANIZATION (INTELSAT)","ORBIT_TYPE":"Geosynchronous","OPERATIONAL_STATUS":"Operational","satInfo":{"lng":-46.9455384373083,"lat":1.387527780477257,"elevation":-7.217929977611585,"azimuth":1.9455384373082503,"range":42480.19768613655,"height":35777.77169239301,"velocity":3.0747815432499817},"x":-261,"y":-244,"dx":21,"dy":22},{"OBJECT_ID":"2008-034B","OBJECT_NAME":"BADR 6","NORAD_CAT_ID":"33154","OBJECT_TYPE":"PAYLOAD","PERIOD":"1436.090","INCLINATION":"0.0633","APOGEE":"35799.892","PERIGEE":"35773.059","ECCENTRICITY":"0.0003182","MEAN_MOTION":"1.00272217","TLE_LINE1":"1 33154U 08034B   16239.11923657  .00000116  00000-0  00000+0 0  9993","TLE_LINE2":"2 33154   0.0633  43.2804 0003182  78.9263 281.4909  1.00272217 29848","LAUNCH_DATE":"2008-07-07","LAUNCH_SITE":"FRENCH GUIANA","OWNER":"ARAB SATELLITE COMMUNICATIONS ORGANIZATION","ORBIT_TYPE":"Geosynchronous","OPERATIONAL_STATUS":"Operational","satInfo":{"lng":62.84947079025441,"lat":0.6778814924372165,"elevation":-7.916552589533651,"azimuth":252.1505292097456,"range":42540.23456390574,"height":35759.62316015277,"velocity":3.075693672770367},"x":318,"y":-163,"dx":14,"dy":-27},{"OBJECT_ID":"2008-034D","OBJECT_NAME":"ARIANE 5 R/B","NORAD_CAT_ID":"33156","OBJECT_TYPE":"ROCKET BODY","PERIOD":"605.312","INCLINATION":"1.8612","APOGEE":"34352.692","PERIGEE":"298.124","ECCENTRICITY":"0.7183434","MEAN_MOTION":"2.37893649","TLE_LINE1":"1 33156U 08034D   16238.44348837 +.00000213 +00000-0 +14209-3 0  9999","TLE_LINE2":"2 33156 001.8612 276.0135 7183434 149.1443 287.2222 02.37893649069054","LAUNCH_DATE":"2008-07-07","LAUNCH_SITE":"FRENCH GUIANA","OWNER":"FRANCE","ORBIT_TYPE":"Highly Elliptical Orbit","OPERATIONAL_STATUS":"N/A, derelict rocket body","satInfo":{"lng":41.235250594476895,"lat":-1.3531940070597972,"elevation":-10.640371813336566,"azimuth":273.76474940552305,"range":39374.29951635952,"height":32329.923879306403,"velocity":1.9376663095111466},"x":213,"y":-243,"dx":15,"dy":-13},{"OBJECT_ID":"2008-035A","OBJECT_NAME":"ECHOSTAR 11","NORAD_CAT_ID":"33207","OBJECT_TYPE":"PAYLOAD","PERIOD":"1436.089","INCLINATION":"0.0637","APOGEE":"35798.339","PERIGEE":"35774.575","ECCENTRICITY":"0.0002818","MEAN_MOTION":"1.00272282","TLE_LINE1":"1 33207U 08035A   16237.38034440 -.00000081  00000-0  00000+0 0  9995","TLE_LINE2":"2 33207   0.0637 279.2606 0002818 252.9134 187.8265  1.00272282 29721","LAUNCH_DATE":"2008-07-16","LAUNCH_SITE":"SEA LAUNCH","OWNER":"UNITED STATES OF AMERICA","ORBIT_TYPE":"Geosynchronous","OPERATIONAL_STATUS":"Operational","satInfo":{"lng":-104.95501896085074,"lat":-0.7098207836283219,"elevation":-9.268703871835916,"azimuth":59.955018960850744,"range":42708.3729482762,"height":35775.860202045435,"velocity":3.0753591840154857},"x":-346,"y":92,"dx":-8,"dy":30},{"OBJECT_ID":"2008-035B","OBJECT_NAME":"BLOCK DM-SL R/B","NORAD_CAT_ID":"33208","OBJECT_TYPE":"ROCKET BODY","PERIOD":"636.514","INCLINATION":"0.2847","APOGEE":"35607.350","PERIGEE":"658.906","ECCENTRICITY":"0.7129058","MEAN_MOTION":"2.26232092","TLE_LINE1":"1 33208U 08035B   16238.37534289  .00000007  00000-0  23751-3 0  9991","TLE_LINE2":"2 33208   0.2847  74.8145 7129058 337.2592 300.9474  2.26232092 67043","LAUNCH_DATE":"2008-07-16","LAUNCH_SITE":"SEA LAUNCH","OWNER":"SEA LAUNCH DEMO","ORBIT_TYPE":"Highly Elliptical Orbit","OPERATIONAL_STATUS":"N/A, derelict rocket body","satInfo":{"lng":-15.93390491169098,"lat":-1.9751223188550848,"elevation":-14.222264456992432,"azimuth":330.933904911691,"range":29943.46303425566,"height":22664.786950667694,"velocity":3.344340499450871},"x":-62,"y":-218,"dx":32,"dy":9},{"OBJECT_ID":"2008-038A","OBJECT_NAME":"SUPERBIRD 7","NORAD_CAT_ID":"33274","OBJECT_TYPE":"PAYLOAD","PERIOD":"1436.107","INCLINATION":"0.0434","APOGEE":"35789.018","PERIGEE":"35784.599","ECCENTRICITY":"5.24e-05","MEAN_MOTION":"1.0027103","TLE_LINE1":"1 33274U 08038A   16238.92132579 -.00000279 +00000-0 +00000-0 0  9995","TLE_LINE2":"2 33274 000.0434 294.1856 0000524 252.9670 263.0747 01.00271030069805","LAUNCH_DATE":"2008-08-14","LAUNCH_SITE":"FRENCH GUIANA","OWNER":"JAPAN","ORBIT_TYPE":"Geosynchronous","OPERATIONAL_STATUS":"Operational","satInfo":{"lng":-13.559022324793737,"lat":1.8103717402723976,"elevation":-6.801042762097133,"azimuth":328.5590223247937,"range":42444.39263919318,"height":35788.615333979105,"velocity":3.0745839090023845},"x":-84,"y":-348,"dx":30,"dy":7},{"OBJECT_ID":"2008-038B","OBJECT_NAME":"AMC-21","NORAD_CAT_ID":"33275","OBJECT_TYPE":"PAYLOAD","PERIOD":"1436.111","INCLINATION":"0.0591","APOGEE":"35798.114","PERIGEE":"35775.640","ECCENTRICITY":"0.0002665","MEAN_MOTION":"1.00270785","TLE_LINE1":"1 33275U 08038B   16239.47558824  .00000007  00000-0  00000+0 0  9999","TLE_LINE2":"2 33275   0.0591 292.7944 0002665 237.5903 211.0572  1.00270785 29551","LAUNCH_DATE":"2008-08-14","LAUNCH_SITE":"FRENCH GUIANA","OWNER":"SOCIÉTÉ EUROPÉENNE DES SATELLITES","ORBIT_TYPE":"Geosynchronous","OPERATIONAL_STATUS":"Operational","satInfo":{"lng":-109.32194142037665,"lat":-1.2665831483987815,"elevation":-9.81268345496022,"azimuth":64.32194142037662,"range":42761.81868027754,"height":35768.371801185116,"velocity":3.075627840706053},"x":-338,"y":118,"dx":-10,"dy":29}]